{
    "links": {
        "self": "http://www.neowsapp.com/rest/v1/neo/3727348?api_key=iIulBulltgU6a56xZRHN4H3l9WmuAYTsLGpBGhQ2"
    },
    "id": "3727348",
    "neo_reference_id": "3727348",
    "name": "(2015 RY82)",
    "designation": "2015 RY82",
    "nasa_jpl_url": "http://ssd.jpl.nasa.gov/sbdb.cgi?sstr=3727348",
    "absolute_magnitude_h": 26.6,
    "estimated_diameter": {
        "kilometers": {
            "estimated_diameter_min": 0.0127219879,
            "estimated_diameter_max": 0.0284472297
        },
        "meters": {
            "estimated_diameter_min": 12.7219878539,
            "estimated_diameter_max": 28.4472296503
        },
        "miles": {
            "estimated_diameter_min": 0.0079050743,
            "estimated_diameter_max": 0.0176762835
        },
        "feet": {
            "estimated_diameter_min": 41.7388066307,
            "estimated_diameter_max": 93.330808926
        }
    },
    "is_potentially_hazardous_asteroid": false,
    "close_approach_data": [
        {
            "close_approach_date": "2015-09-03",
            "close_approach_date_full": "2015-Sep-03 19:05",
            "epoch_date_close_approach": 1441307100000,
            "relative_velocity": {
                "kilometers_per_second": "9.5051322414",
                "kilometers_per_hour": "34218.4760691321",
                "miles_per_hour": "21262.0303108449"
            },
            "miss_distance": {
                "astronomical": "0.0262235921",
                "lunar": "10.2009773269",
                "kilometers": "3922993.521908827",
                "miles": "2437635.1398707326"
            },
            "orbiting_body": "Earth"
        }
    ],
    "orbital_data": {
        "orbit_id": "4",
        "orbit_determination_date": "2017-04-06 08:31:58",
        "first_observation_date": "2015-09-11",
        "last_observation_date": "2015-09-16",
        "data_arc_in_days": 5,
        "observations_used": 13,
        "orbit_uncertainty": "8",
        "minimum_orbit_intersection": ".023349",
        "jupiter_tisserand_invariant": "3.453",
        "epoch_osculation": "2457278.5",
        "eccentricity": ".5445399262909273",
        "semi_major_axis": "2.194630337822502",
        "inclination": "6.792057615789068",
        "ascending_node_longitude": "346.952630428771",
        "orbital_period": "1187.518801986249",
        "perihelion_distance": ".9995664954288039",
        "perihelion_argument": "330.1115300701375",
        "aphelion_distance": "3.389694180216201",
        "perihelion_time": "2457250.070098494142",
        "mean_anomaly": "8.618612627429703",
        "mean_motion": ".3031530948376249",
        "equinox": "J2000",
        "orbit_class": {
            "orbit_class_type": "APO",
            "orbit_class_description": "Near-Earth asteroid orbits which cross the Earth’s orbit similar to that of 1862 Apollo",
            "orbit_class_range": "a (semi-major axis) > 1.0 AU; q (perihelion) < 1.017 AU"
        }
    },
    "is_sentry_object": false
}